{
  "type": "FeatureCollection",
  "features": [
    {
      "type": "Feature",
      "properties": {
        "norad_id": 32460,
        "name": "FENGYUN 1C DEB",
        "group": "fengyun-1c-debris",
        "lat": 53.28767766734463,
        "lon": 119.26149193830221,
        "alt_km": 889.1039498443679,
        "timestamp": "2025-12-10T16:57:11.923043+00:00",
        "meta_object_name": "FENGYUN 1C DEB",
        "meta_object_id": "1999-025DBY",
        "meta_epoch": "2025-12-07T16:06:34.298784",
        "meta_mean_motion": 13.89549583,
        "meta_eccentricity": 0.01857937,
        "meta_inclination": 98.0182,
        "meta_ra_of_asc_node": 127.5395,
        "meta_arg_of_pericenter": 138.2427,
        "meta_mean_anomaly": 223.3085,
        "meta_ephemeris_type": 0,
        "meta_classification_type": "U",
        "meta_norad_cat_id": 32460,
        "meta_element_set_no": 999,
        "meta_rev_at_epoch": 65183,
        "meta_bstar": 0.0019975298,
        "meta_mean_motion_dot": 2.774e-05,
        "meta_mean_motion_ddot": 0,
        "tle_line1": "1 32460U 99025DBY 25341.67123031  .00002774  00000+0  19975-2 0  9990",
        "tle_line2": "2 32460  98.0182 127.5395 0185793 138.2427 223.3085 13.89549583651838"
      },
      "geometry": {
        "type": "Point",
        "coordinates": [
          119.26149193830221,
          53.28767766734463
        ]
      }
    },
    {
      "type": "Feature",
      "properties": {
        "norad_id": 32461,
        "name": "FENGYUN 1C DEB",
        "group": "fengyun-1c-debris",
        "lat": -76.52429191185475,
        "lon": -122.14290648447283,
        "alt_km": 1154.8442938108592,
        "timestamp": "2025-12-10T16:57:11.923053+00:00",
        "meta_object_name": "FENGYUN 1C DEB",
        "meta_object_id": "1999-025DBZ",
        "meta_epoch": "2025-12-06T13:47:26.922624",
        "meta_mean_motion": 13.72810321,
        "meta_eccentricity": 0.02320135,
        "meta_inclination": 98.3348,
        "meta_ra_of_asc_node": 196.5399,
        "meta_arg_of_pericenter": 133.6429,
        "meta_mean_anomaly": 257.3138,
        "meta_ephemeris_type": 0,
        "meta_classification_type": "U",
        "meta_norad_cat_id": 32461,
        "meta_element_set_no": 999,
        "meta_rev_at_epoch": 67210,
        "meta_bstar": 0.001699488,
        "meta_mean_motion_dot": 1.863e-05,
        "meta_mean_motion_ddot": 0,
        "tle_line1": "1 32461U 99025DBZ 25340.57461716  .00001863  00000+0  16995-2 0  9991",
        "tle_line2": "2 32461  98.3348 196.5399 0232013 133.6429 257.3138 13.72810321672107"
      },
      "geometry": {
        "type": "Point",
        "coordinates": [
          -122.14290648447283,
          -76.52429191185475
        ]
      }
    },
    {
      "type": "Feature",
      "properties": {
        "norad_id": 32464,
        "name": "FENGYUN 1C DEB",
        "group": "fengyun-1c-debris",
        "lat": -22.379593652445877,
        "lon": -173.8922257249453,
        "alt_km": 534.627006802134,
        "timestamp": "2025-12-10T16:57:11.923063+00:00",
        "meta_object_name": "FENGYUN 1C DEB",
        "meta_object_id": "1999-025DCC",
        "meta_epoch": "2025-12-09T12:41:30.301152",
        "meta_mean_motion": 14.92773365,
        "meta_eccentricity": 0.0112837,
        "meta_inclination": 97.356,
        "meta_ra_of_asc_node": 8.0558,
        "meta_arg_of_pericenter": 247.1039,
        "meta_mean_anomaly": 111.8238,
        "meta_ephemeris_type": 0,
        "meta_classification_type": "U",
        "meta_norad_cat_id": 32464,
        "meta_element_set_no": 999,
        "meta_rev_at_epoch": 60744,
        "meta_bstar": 0.0017853,
        "meta_mean_motion_dot": 0.0002088,
        "meta_mean_motion_ddot": 0,
        "tle_line1": "1 32464U 99025DCC 25343.52882293  .00020880  00000+0  17853-2 0  9993",
        "tle_line2": "2 32464  97.3560   8.0558 0112837 247.1039 111.8238 14.92773365607447"
      },
      "geometry": {
        "type": "Point",
        "coordinates": [
          -173.8922257249453,
          -22.379593652445877
        ]
      }
    },
    {
      "type": "Feature",
      "properties": {
        "norad_id": 33502,
        "name": "FENGYUN 1C DEB",
        "group": "fengyun-1c-debris",
        "lat": -57.580494312101116,
        "lon": 92.92372746552435,
        "alt_km": 815.7465457625285,
        "timestamp": "2025-12-10T16:57:11.923073+00:00",
        "meta_object_name": "FENGYUN 1C DEB",
        "meta_object_id": "1999-025DCF",
        "meta_epoch": "2025-12-10T08:06:13.976064",
        "meta_mean_motion": 14.21822997,
        "meta_eccentricity": 0.007913,
        "meta_inclination": 99.0258,
        "meta_ra_of_asc_node": 287.0403,
        "meta_arg_of_pericenter": 159.8719,
        "meta_mean_anomaly": 351.6044,
        "meta_ephemeris_type": 0,
        "meta_classification_type": "U",
        "meta_norad_cat_id": 33502,
        "meta_element_set_no": 999,
        "meta_rev_at_epoch": 86921,
        "meta_bstar": 0.0034319,
        "meta_mean_motion_dot": 7.764e-05,
        "meta_mean_motion_ddot": 0,
        "tle_line1": "1 33502U 99025DCF 25344.33766176  .00007764  00000+0  34319-2 0  9990",
        "tle_line2": "2 33502  99.0258 287.0403 0079130 159.8719 351.6044 14.21822997869216"
      },
      "geometry": {
        "type": "Point",
        "coordinates": [
          92.92372746552435,
          -57.580494312101116
        ]
      }
    },
    {
      "type": "Feature",
      "properties": {
        "norad_id": 33599,
        "name": "FENGYUN 1C DEB",
        "group": "fengyun-1c-debris",
        "lat": -20.905257796430654,
        "lon": -129.8120296262232,
        "alt_km": 549.1223976331066,
        "timestamp": "2025-12-10T16:57:11.923082+00:00",
        "meta_object_name": "FENGYUN 1C DEB",
        "meta_object_id": "1999-025DCG",
        "meta_epoch": "2025-12-06T10:36:41.156064",
        "meta_mean_motion": 15.14898296,
        "meta_eccentricity": 0.0126212,
        "meta_inclination": 96.6136,
        "meta_ra_of_asc_node": 49.0151,
        "meta_arg_of_pericenter": 322.3863,
        "meta_mean_anomaly": 36.8593,
        "meta_ephemeris_type": 0,
        "meta_classification_type": "U",
        "meta_norad_cat_id": 33599,
        "meta_element_set_no": 999,
        "meta_rev_at_epoch": 65908,
        "meta_bstar": 0.0016783,
        "meta_mean_motion_dot": 0.00038297,
        "meta_mean_motion_ddot": 0,
        "tle_line1": "1 33599U 99025DCG 25340.44214301  .00038297  00000+0  16783-2 0  9992",
        "tle_line2": "2 33599  96.6136  49.0151 0126212 322.3863  36.8593 15.14898296659088"
      },
      "geometry": {
        "type": "Point",
        "coordinates": [
          -129.8120296262232,
          -20.905257796430654
        ]
      }
    },
    {
      "type": "Feature",
      "properties": {
        "norad_id": 33601,
        "name": "FENGYUN 1C DEB",
        "group": "fengyun-1c-debris",
        "lat": 15.063294168018674,
        "lon": 138.79919040790423,
        "alt_km": 944.4070442716138,
        "timestamp": "2025-12-10T16:57:11.923092+00:00",
        "meta_object_name": "FENGYUN 1C DEB",
        "meta_object_id": "1999-025DCJ",
        "meta_epoch": "2025-12-10T10:03:24.552288",
        "meta_mean_motion": 14.07898476,
        "meta_eccentricity": 0.0157863,
        "meta_inclination": 98.314,
        "meta_ra_of_asc_node": 140.7898,
        "meta_arg_of_pericenter": 149.1866,
        "meta_mean_anomaly": 211.8689,
        "meta_ephemeris_type": 0,
        "meta_classification_type": "U",
        "meta_norad_cat_id": 33601,
        "meta_element_set_no": 999,
        "meta_rev_at_epoch": 90647,
        "meta_bstar": 0.0019805,
        "meta_mean_motion_dot": 3.731e-05,
        "meta_mean_motion_ddot": 0,
        "tle_line1": "1 33601U 99025DCJ 25344.41903417  .00003731  00000+0  19805-2 0  9993",
        "tle_line2": "2 33601  98.3140 140.7898 0157863 149.1866 211.8689 14.07898476906477"
      },
      "geometry": {
        "type": "Point",
        "coordinates": [
          138.79919040790423,
          15.063294168018674
        ]
      }
    },
    {
      "type": "Feature",
      "properties": {
        "norad_id": 33603,
        "name": "FENGYUN 1C DEB",
        "group": "fengyun-1c-debris",
        "lat": -62.31589615978417,
        "lon": 83.01596438185547,
        "alt_km": 785.6855311460467,
        "timestamp": "2025-12-10T16:57:11.923102+00:00",
        "meta_object_name": "FENGYUN 1C DEB",
        "meta_object_id": "1999-025DCL",
        "meta_epoch": "2025-12-08T13:34:00.230016",
        "meta_mean_motion": 14.79892222,
        "meta_eccentricity": 0.0220686,
        "meta_inclination": 98.8046,
        "meta_ra_of_asc_node": 277.8514,
        "meta_arg_of_pericenter": 85.703,
        "meta_mean_anomaly": 276.9361,
        "meta_ephemeris_type": 0,
        "meta_classification_type": "U",
        "meta_norad_cat_id": 33603,
        "meta_element_set_no": 999,
        "meta_rev_at_epoch": 98798,
        "meta_bstar": 0.00032432,
        "meta_mean_motion_dot": 3.636e-05,
        "meta_mean_motion_ddot": 0,
        "tle_line1": "1 33603U 99025DCL 25342.56528044  .00003636  00000+0  32432-3 0  9994",
        "tle_line2": "2 33603  98.8046 277.8514 0220686  85.7030 276.9361 14.79892222987984"
      },
      "geometry": {
        "type": "Point",
        "coordinates": [
          83.01596438185547,
          -62.31589615978417
        ]
      }
    }
  ]
}